H1 CPF  1  HTS 2022 12 16 12  8501 larets           NONE
H2  0304206 5557    27944 2022 12 16  0  0  0 2022 12 21  0  0  0   180 1 1  0 0 0
H5  0.0560 
H9 
10 0 59928  85320.00000  0    4740942.277    4298978.236   -3000302.848
10 0 59928  85500.00000  0    5270184.628    4370943.146   -1743579.965
10 0 59928  85680.00000  0    5607413.556    4272571.422    -423001.263
10 0 59928  85860.00000  0    5735667.591    4012445.212     913086.831
10 0 59928  86040.00000  0    5645955.164    3605457.215    2215619.493
10 0 59928  86220.00000  0    5337785.130    3072068.242    3436673.718
10 0 59929      0.00000  0    4819332.386    2437328.738    4531295.302
10 0 59929    180.00000  0    4107229.157    1729714.137    5459200.944
10 0 59929    360.00000  0    3226001.097     979842.657    6186285.588
10 0 59929    540.00000  0    2207169.667     219135.649    6685875.068
10 0 59929    720.00000  0    1088078.956    -521509.454    6939679.846
10 0 59929    900.00000  0     -89507.079   -1212981.159    6938444.231
10 0 59929   1080.00000  0   -1280990.788   -1829107.123    6682265.083
10 0 59929   1260.00000  0   -2440646.461   -2347653.136    6180575.345
10 0 59929   1440.00000  0   -3523384.740   -2751132.298    5451806.216
10 0 59929   1620.00000  0   -4486533.002   -3027407.681    4522735.713
10 0 59929   1800.00000  0   -5291556.578   -3170060.594    3427514.841
10 0 59929   1980.00000  0   -5905639.767   -3178505.499    2206412.180
10 0 59929   2160.00000  0   -6303063.631   -3057852.431     904317.706
10 0 59929   2340.00000  0   -6466307.845   -2818519.480    -430948.393
10 0 59929   2520.00000  0   -6386815.642   -2475611.696   -1750443.985
10 0 59929   2700.00000  0   -6065380.301   -2048101.977   -3005950.566
10 0 59929   2880.00000  0   -5512137.058   -1557861.614   -4151763.507
10 0 59929   3060.00000  0   -4746177.139   -1028596.123   -5146352.484
10 0 59929   3240.00000  0   -3794812.994    -484740.962   -5953830.775
10 0 59929   3420.00000  0   -2692537.928      49629.176   -6545184.090
10 0 59929   3600.00000  0   -1479738.557     551827.281   -6899229.504
10 0 59929   3780.00000  0    -201215.369    1001476.720   -7003296.258
10 0 59929   3960.00000  0    1095435.588    1381304.556   -6853626.214
10 0 59929   4140.00000  0    2361538.802    1677783.127   -6455502.837
10 0 59929   4320.00000  0    3549118.736    1881605.466   -5823097.241
10 0 59929   4500.00000  0    4612684.445    1987977.198   -4979024.535
10 0 59929   4680.00000  0    5510969.172    1996717.079   -3953619.444
10 0 59929   4860.00000  0    6208566.698    1912160.166   -2783927.182
10 0 59929   5040.00000  0    6677391.943    1742861.519   -1512427.940
10 0 59929   5220.00000  0    6897895.320    1501109.258    -185520.501
10 0 59929   5400.00000  0    6859953.347    1202261.965    1148184.816
10 0 59929   5580.00000  0    6563377.965     863943.323    2439688.302
10 0 59929   5760.00000  0    6018014.590     505132.359    3641462.105
10 0 59929   5940.00000  0    5243408.315     145197.109    4709260.792
10 0 59929   6120.00000  0    4268060.543    -197072.234    5603792.996
10 0 59929   6300.00000  0    3128318.839    -504383.019    6292187.838
10 0 59929   6480.00000  0    1866956.407    -761764.057    6749195.640
10 0 59929   6660.00000  0     531515.436    -957258.099    6958094.238
10 0 59929   6840.00000  0    -827525.570   -1082456.547    6911277.464
10 0 59929   7020.00000  0   -2158684.689   -1132854.358    6610510.591
10 0 59929   7200.00000  0   -3411440.061   -1108011.813    6066858.111
10 0 59929   7380.00000  0   -4538165.807   -1011518.563    5300293.206
10 0 59929   7560.00000  0   -5495981.702    -850766.263    4338985.653
10 0 59929   7740.00000  0   -6248435.039    -636535.540    3218276.015
10 0 59929   7920.00000  0   -6766938.788    -382414.265    1979373.148
10 0 59929   8100.00000  0   -7031908.634    -104074.333     667818.897
10 0 59929   8280.00000  0   -7033533.955     181555.946    -668231.032
10 0 59929   8460.00000  0   -6772136.722     457181.123   -1979829.080
10 0 59929   8640.00000  0   -6258105.490     706041.597   -3219072.713
10 0 59929   8820.00000  0   -5511420.432     912783.093   -4340880.057
10 0 59929   9000.00000  0   -4560790.895    1064249.145   -5304625.143
10 0 59929   9180.00000  0   -3442469.782    1150156.424   -6075564.162
10 0 59929   9360.00000  0   -2198814.463    1163623.850   -6626014.889
10 0 59929   9540.00000  0    -876662.442    1101537.816   -6936267.684
10 0 59929   9720.00000  0     474415.315     964745.233   -6995215.513
10 0 59929   9900.00000  0    1803921.604     758068.140   -6800707.479
10 0 59929  10080.00000  0    3062265.119     490139.931   -6359629.442
10 0 59929  10260.00000  0    4202566.653     173066.408   -5687695.082
10 0 59929  10440.00000  0    5182383.566    -178080.360   -4808952.757
10 0 59929  10620.00000  0    5965306.952    -545920.599   -3755011.364
10 0 59929  10800.00000  0    6522370.752    -911557.847   -2563982.175
10 0 59929  10980.00000  0    6833206.530   -1255473.216   -1279157.310
10 0 59929  11160.00000  0    6886881.490   -1558482.027      52544.171
10 0 59929  11340.00000  0    6682363.858   -1802705.276    1382306.729
10 0 59929  11520.00000  0    6228579.212   -1972505.787    2661255.708
10 0 59929  11700.00000  0    5544043.370   -2055336.122    3842317.421
10 0 59929  11880.00000  0    4656085.521   -2042449.526    4882010.152
10 0 59929  12060.00000  0    3599710.055   -1929436.339    5742082.257
10 0 59929  12240.00000  0    2416157.912   -1716559.602    6390936.947
10 0 59929  12420.00000  0    1151236.097   -1408875.557    6804784.266
10 0 59929  12600.00000  0    -146502.044   -1016134.967    6968490.745
10 0 59929  12780.00000  0   -1427652.381    -552467.655    6876106.189
10 0 59929  12960.00000  0   -2643857.111     -35864.377    6531062.419
10 0 59929  13140.00000  0   -3749643.255     512527.370    5946047.337
10 0 59929  13320.00000  0   -4704146.716    1069269.125    5142555.107
10 0 59929  13500.00000  0   -5472661.285    1609627.548    4150114.917
10 0 59929  13680.00000  0   -6027947.679    2108663.467    3005214.539
10 0 59929  13860.00000  0   -6351243.275    2542364.724    1749952.748
10 0 59929  14040.00000  0   -6432929.926    2888770.094     430466.505
10 0 59929  14220.00000  0   -6272820.047    3129026.995    -904811.370
10 0 59929  14400.00000  0   -5880043.611    3248324.673   -2206982.367
10 0 59929  14580.00000  0   -5272546.762    3236656.094   -3428518.703
10 0 59929  14760.00000  0   -4476230.061    3089369.214   -4525020.526
10 0 59929  14940.00000  0   -3523784.972    2807484.345   -5456814.139
10 0 59929  15120.00000  0   -2453300.956    2397770.778   -6190333.988
10 0 59929  15300.00000  0   -1306717.203    1872589.202   -6699256.689
10 0 59929  15480.00000  0    -128180.778    1249508.683   -6965363.764
10 0 59929  15660.00000  0    1037619.745     550718.702   -6979123.024
10 0 59929  15840.00000  0    2147099.491    -197743.102   -6739996.263
10 0 59929  16020.00000  0    3159361.848    -966931.676   -6256463.655
10 0 59929  16200.00000  0    4037673.976   -1726076.138   -5545764.058
10 0 59929  16380.00000  0    4750795.555   -2443774.552   -4633354.582
10 0 59929  16560.00000  0    5274120.410   -3089271.631   -3552084.782
10 0 59929  16740.00000  0    5590580.907   -3633767.559   -2341090.491
10 0 59929  16920.00000  0    5691273.563   -4051701.758   -1044427.312
10 0 59929  17100.00000  0    5575763.040   -4321949.967     290518.581
10 0 59929  17280.00000  0    5252038.396   -4428871.050    1614785.828
10 0 59929  17460.00000  0    4736109.199   -4363140.164    2879687.326
10 0 59929  17640.00000  0    4051258.021   -4122313.616    4038662.462
10 0 59929  17820.00000  0    3226991.591   -3711099.384    5049045.546
10 0 59929  18000.00000  0    2297741.895   -3141316.643    5873673.373
10 0 59929  18180.00000  0    1301390.132   -2431546.667    6482263.027
10 0 59929  18360.00000  0     277684.933   -1606497.188    6852511.306
10 0 59929  18540.00000  0    -733370.720    -696112.027    6970886.280
10 0 59929  18720.00000  0   -1693097.969     265540.325    6833097.896
10 0 59929  18900.00000  0   -2565632.205    1241558.530    6444241.164
10 0 59929  19080.00000  0   -3319275.576    2193636.315    5818610.414
10 0 59929  19260.00000  0   -3927667.225    3083578.375    4979190.261
10 0 59929  19440.00000  0   -4370732.225    3874852.398    3956829.965
10 0 59929  19620.00000  0   -4635370.122    4534113.345    2789118.391
10 0 59929  19800.00000  0   -4715850.154    5032634.661    1518992.477
10 0 59929  19980.00000  0   -4613890.356    5347574.105     193126.801
10 0 59929  20160.00000  0   -4338421.870    5463006.940   -1139827.063
10 0 59929  20340.00000  0   -3905046.859    5370676.700   -2431081.256
10 0 59929  20520.00000  0   -3335214.688    5070416.240   -3633541.422
10 0 59929  20700.00000  0   -2655172.846    4570227.614   -4703538.570
10 0 59929  20880.00000  0   -1894754.486    3886026.386   -5602388.709
10 0 59929  21060.00000  0   -1086071.418    3041083.720   -6297732.281
10 0 59929  21240.00000  0    -262169.892    2065192.558   -6764625.894
10 0 59929  21420.00000  0     544295.189     993597.095   -6986356.392
10 0 59929  21600.00000  0    1302317.550    -134267.471   -6954976.048
10 0 59929  21780.00000  0    1983696.187   -1276190.727   -6671557.313
10 0 59929  21960.00000  0    2564055.030   -2388718.528   -6146162.927
10 0 59929  22140.00000  0    3023702.406   -3428758.751   -5397539.635
10 0 59929  22320.00000  0    3348309.021   -4355229.144   -4452529.449
10 0 59929  22500.00000  0    3529373.391   -5130684.439   -3345186.913
10 0 59929  22680.00000  0    3564456.788   -5722859.976   -2115628.775
10 0 59929  22860.00000  0    3457173.308   -6106070.882    -808626.659
10 0 59929  23040.00000  0    3216922.797   -6262384.002     528018.660
10 0 59929  23220.00000  0    2858369.381   -6182492.384    1845257.206
99
